{"type": "FeatureCollection", "features": [ {"type": "Feature", "properties": {"norad_id": 34529, "name": "IRIDIUM 33 DEB", "group": "iridium-33-debris", "lat": 31.697933782523226, "lon": 34.834259670317905, "alt_km": 756.9864293081664, "timestamp": "2025-12-19T08:58:49.722098+00:00", "meta": {"OBJECT_NAME": "IRIDIUM 33 DEB", "OBJECT_ID": "1997-051HW", "EPOCH": "2025-12-18T14:29:46.495968", "MEAN_MOTION": 14.40620248, "ECCENTRICITY": 0.00055161, "INCLINATION": 86.3637, "RA_OF_ASC_NODE": 32.9118, "ARG_OF_PERICENTER": 159.4672, "MEAN_ANOMALY": 200.675, "EPHEMERIS_TYPE": 0, "CLASSIFICATION_TYPE": "U", "NORAD_CAT_ID": 34529, "ELEMENT_SET_NO": 999, "REV_AT_EPOCH": 88226, "BSTAR": 8.9957173e-05, "MEAN_MOTION_DOT": 3.07e-06, "MEAN_MOTION_DDOT": 0}, "tle": {"line1": "1 34529U 97051HW  25352.60401037  .00000307  00000+0  89957-4 0  9994", "line2": "2 34529  86.3637  32.9118 0005516 159.4672 200.6750 14.40620248882260"}}, "geometry": {"type": "Point", "coordinates": [34.834259670317905, 31.697933782523226]}}, {"type": "Feature", "properties": {"norad_id": 34538, "name": "IRIDIUM 33 DEB", "group": "iridium-33-debris", "lat": -81.427249015908, "lon": -22.945477340369926, "alt_km": 736.6688838130722, "timestamp": "2025-12-19T08:58:49.722108+00:00", "meta": {"OBJECT_NAME": "IRIDIUM 33 DEB", "OBJECT_ID": "1997-051JF", "EPOCH": "2025-12-18T18:39:10.772064", "MEAN_MOTION": 14.42682193, "ECCENTRICITY": 0.00322699, "INCLINATION": 86.2762, "RA_OF_ASC_NODE": 2.9117, "ARG_OF_PERICENTER": 307.2305, "MEAN_ANOMALY": 112.1518, "EPHEMERIS_TYPE": 0, "CLASSIFICATION_TYPE": "U", "NORAD_CAT_ID": 34538, "ELEMENT_SET_NO": 999, "REV_AT_EPOCH": 87843, "BSTAR": 0.00069403531, "MEAN_MOTION_DOT": 2.341e-05, "MEAN_MOTION_DDOT": 0}, "tle": {"line1": "1 34538U 97051JF  25352.77720801  .00002341  00000+0  69404-3 0  9999", "line2": "2 34538  86.2762   2.9117 0032269 307.2305 112.1518 14.42682193878437"}}, "geometry": {"type": "Point", "coordinates": [-22.945477340369926, -81.427249015908]}}, {"type": "Feature", "properties": {"norad_id": 34540, "name": "IRIDIUM 33 DEB", "group": "iridium-33-debris", "lat": 36.10507465763985, "lon": -52.72962540029696, "alt_km": 643.4293302278575, "timestamp": "2025-12-19T08:58:49.722119+00:00", "meta": {"OBJECT_NAME": "IRIDIUM 33 DEB", "OBJECT_ID": "1997-051JH", "EPOCH": "2025-12-18T08:57:29.352960", "MEAN_MOTION": 14.75435184, "ECCENTRICITY": 0.00173002, "INCLINATION": 86.3103, "RA_OF_ASC_NODE": 305.0304, "ARG_OF_PERICENTER": 139.8381, "MEAN_ANOMALY": 343.587, "EPHEMERIS_TYPE": 0, "CLASSIFICATION_TYPE": "U", "NORAD_CAT_ID": 34540, "ELEMENT_SET_NO": 999, "REV_AT_EPOCH": 89104, "BSTAR": 0.0013410572, "MEAN_MOTION_DOT": 9.16e-05, "MEAN_MOTION_DDOT": 0}, "tle": {"line1": "1 34540U 97051JH  25352.37325640  .00009160  00000+0  13411-2 0  9992", "line2": "2 34540  86.3103 305.0304 0017300 139.8381 343.5870 14.75435184891042"}}, "geometry": {"type": "Point", "coordinates": [-52.72962540029696, 36.10507465763985]}}, {"type": "Feature", "properties": {"norad_id": 34648, "name": "IRIDIUM 33 DEB", "group": "iridium-33-debris", "lat": 77.65755913177499, "lon": 82.49991738930277, "alt_km": 976.9634545650324, "timestamp": "2025-12-19T08:58:49.722129+00:00", "meta": {"OBJECT_NAME": "IRIDIUM 33 DEB", "OBJECT_ID": "1997-051JZ", "EPOCH": "2025-12-18T13:46:37.352352", "MEAN_MOTION": 14.1166623, "ECCENTRICITY": 0.01808845, "INCLINATION": 86.3904, "RA_OF_ASC_NODE": 279.59, "ARG_OF_PERICENTER": 280.6676, "MEAN_ANOMALY": 77.4184, "EPHEMERIS_TYPE": 0, "CLASSIFICATION_TYPE": "U", "NORAD_CAT_ID": 34648, "ELEMENT_SET_NO": 999, "REV_AT_EPOCH": 85043, "BSTAR": 0.0055375481, "MEAN_MOTION_DOT": 0.00011772, "MEAN_MOTION_DDOT": 0}, "tle": {"line1": "1 34648U 97051JZ  25352.57404343  .00011772  00000+0  55375-2 0  9998", "line2": "2 34648  86.3904 279.5900 0180884 280.6676  77.4184 14.11666230850434"}}, "geometry": {"type": "Point", "coordinates": [82.49991738930277, 77.65755913177499]}}, {"type": "Feature", "properties": {"norad_id": 34651, "name": "IRIDIUM 33 DEB", "group": "iridium-33-debris", "lat": 40.95078976445951, "lon": -45.47897623231255, "alt_km": 728.1124843625785, "timestamp": "2025-12-19T08:58:49.722139+00:00", "meta": {"OBJECT_NAME": "IRIDIUM 33 DEB", "OBJECT_ID": "1997-051KC", "EPOCH": "2025-12-18T20:32:10.493664", "MEAN_MOTION": 14.25912214, "ECCENTRICITY": 0.01422304, "INCLINATION": 86.2828, "RA_OF_ASC_NODE": 137.9757, "ARG_OF_PERICENTER": 184.5994, "MEAN_ANOMALY": 175.3902, "EPHEMERIS_TYPE": 0, "CLASSIFICATION_TYPE": "U", "NORAD_CAT_ID": 34651, "ELEMENT_SET_NO": 999, "REV_AT_EPOCH": 85983, "BSTAR": 0.0024078019, "MEAN_MOTION_DOT": 6.398e-05, "MEAN_MOTION_DDOT": 0}, "tle": {"line1": "1 34651U 97051KC  25352.85567701  .00006398  00000+0  24078-2 0  9995", "line2": "2 34651  86.2828 137.9757 0142230 184.5994 175.3902 14.25912214859837"}}, "geometry": {"type": "Point", "coordinates": [-45.47897623231255, 40.95078976445951]}}, {"type": "Feature", "properties": {"norad_id": 34652, "name": "IRIDIUM 33 DEB", "group": "iridium-33-debris", "lat": -25.000451321074532, "lon": -24.667517872575758, "alt_km": 683.2313540812283, "timestamp": "2025-12-19T08:58:49.722149+00:00", "meta": {"OBJECT_NAME": "IRIDIUM 33 DEB", "OBJECT_ID": "1997-051KD", "EPOCH": "2025-12-18T17:14:29.252832", "MEAN_MOTION": 14.62111337, "ECCENTRICITY": 0.0025564, "INCLINATION": 86.3309, "RA_OF_ASC_NODE": 337.3391, "ARG_OF_PERICENTER": 276.3765, "MEAN_ANOMALY": 208.8285, "EPHEMERIS_TYPE": 0, "CLASSIFICATION_TYPE": "U", "NORAD_CAT_ID": 34652, "ELEMENT_SET_NO": 999, "REV_AT_EPOCH": 88571, "BSTAR": 0.00069226917, "MEAN_MOTION_DOT": 3.516e-05, "MEAN_MOTION_DDOT": 0}, "tle": {"line1": "1 34652U 97051KD  25352.71839413  .00003516  00000+0  69227-3 0  9998", "line2": "2 34652  86.3309 337.3391 0025564 276.3765 208.8285 14.62111337885719"}}, "geometry": {"type": "Point", "coordinates": [-24.667517872575758, -25.000451321074532]}}, {"type": "Feature", "properties": {"norad_id": 34690, "name": "IRIDIUM 33 DEB", "group": "iridium-33-debris", "lat": 31.01529746821141, "lon": 36.29087461517109, "alt_km": 700.7718816050347, "timestamp": "2025-12-19T08:58:49.722159+00:00", "meta": {"OBJECT_NAME": "IRIDIUM 33 DEB", "OBJECT_ID": "1997-051KM", "EPOCH": "2025-12-18T10:00:51.155136", "MEAN_MOTION": 14.55116306, "ECCENTRICITY": 0.00101708, "INCLINATION": 86.378, "RA_OF_ASC_NODE": 34.5242, "ARG_OF_PERICENTER": 10.8179, "MEAN_ANOMALY": 50.7531, "EPHEMERIS_TYPE": 0, "CLASSIFICATION_TYPE": "U", "NORAD_CAT_ID": 34690, "ELEMENT_SET_NO": 999, "REV_AT_EPOCH": 88177, "BSTAR": 0.00034845824, "MEAN_MOTION_DOT": 1.525e-05, "MEAN_MOTION_DDOT": 0}, "tle": {"line1": "1 34690U 97051KM  25352.41725874  .00001525  00000+0  34846-3 0  9999", "line2": "2 34690  86.3780  34.5242 0010170  10.8179  50.7531 14.55116306881775"}}, "geometry": {"type": "Point", "coordinates": [36.29087461517109, 31.01529746821141]}}, {"type": "Feature", "properties": {"norad_id": 34693, "name": "IRIDIUM 33 DEB", "group": "iridium-33-debris", "lat": 35.36264136934604, "lon": -56.8470072534413, "alt_km": 466.8421901326501, "timestamp": "2025-12-19T08:58:49.722169+00:00", "meta": {"OBJECT_NAME": "IRIDIUM 33 DEB", "OBJECT_ID": "1997-051KQ", "EPOCH": "2025-12-18T20:30:35.333568", "MEAN_MOTION": 15.29367567, "ECCENTRICITY": 0.0012164, "INCLINATION": 86.305, "RA_OF_ASC_NODE": 300.783, "ARG_OF_PERICENTER": 41.8212, "MEAN_ANOMALY": 14.7661, "EPHEMERIS_TYPE": 0, "CLASSIFICATION_TYPE": "U", "NORAD_CAT_ID": 34693, "ELEMENT_SET_NO": 999, "REV_AT_EPOCH": 89008, "BSTAR": 0.0035831985, "MEAN_MOTION_DOT": 0.00103466, "MEAN_MOTION_DDOT": 0}, "tle": {"line1": "1 34693U 97051KQ  25352.85457562  .00103466  00000+0  35832-2 0  9998", "line2": "2 34693  86.3050 300.7830 0012164  41.8212  14.7661 15.29367567890083"}}, "geometry": {"type": "Point", "coordinates": [-56.8470072534413, 35.36264136934604]}}, {"type": "Feature", "properties": {"norad_id": 34696, "name": "IRIDIUM 33 DEB", "group": "iridium-33-debris", "lat": 51.03094059654661, "lon": 29.167824591771573, "alt_km": 674.2618827204033, "timestamp": "2025-12-19T08:58:49.722179+00:00", "meta": {"OBJECT_NAME": "IRIDIUM 33 DEB", "OBJECT_ID": "1997-051KT", "EPOCH": "2025-12-18T13:46:17.310144", "MEAN_MOTION": 14.65374938, "ECCENTRICITY": 0.00738622, "INCLINATION": 86.1844, "RA_OF_ASC_NODE": 24.8077, "ARG_OF_PERICENTER": 147.8205, "MEAN_ANOMALY": 4.7215, "EPHEMERIS_TYPE": 0, "CLASSIFICATION_TYPE": "U", "NORAD_CAT_ID": 34696, "ELEMENT_SET_NO": 999, "REV_AT_EPOCH": 86758, "BSTAR": 0.0032443033, "MEAN_MOTION_DOT": 0.00018298, "MEAN_MOTION_DDOT": 0}, "tle": {"line1": "1 34696U 97051KT  25352.57381146  .00018298  00000+0  32443-2 0  9997", "line2": "2 34696  86.1844  24.8077 0073862 147.8205   4.7215 14.65374938867585"}}, "geometry": {"type": "Point", "coordinates": [29.167824591771573, 51.03094059654661]}}, {"type": "Feature", "properties": {"norad_id": 34765, "name": "IRIDIUM 33 DEB", "group": "iridium-33-debris", "lat": 70.31741971016649, "lon": 40.22669553173121, "alt_km": 755.5792024923212, "timestamp": "2025-12-19T08:58:49.722189+00:00", "meta": {"OBJECT_NAME": "IRIDIUM 33 DEB", "OBJECT_ID": "1997-051LJ", "EPOCH": "2025-12-18T13:21:25.941600", "MEAN_MOTION": 14.40479279, "ECCENTRICITY": 0.00160914, "INCLINATION": 86.3386, "RA_OF_ASC_NODE": 30.2656, "ARG_OF_PERICENTER": 191.4295, "MEAN_ANOMALY": 322.071, "EPHEMERIS_TYPE": 0, "CLASSIFICATION_TYPE": "U", "NORAD_CAT_ID": 34765, "ELEMENT_SET_NO": 999, "REV_AT_EPOCH": 87697, "BSTAR": 0.00029987235, "MEAN_MOTION_DOT": 9.74e-06, "MEAN_MOTION_DDOT": 0}, "tle": {"line1": "1 34765U 97051LJ  25352.55655025  .00000974  00000+0  29987-3 0  9994", "line2": "2 34765  86.3386  30.2656 0016091 191.4295 322.0710 14.40479279876970"}}, "geometry": {"type": "Point", "coordinates": [40.22669553173121, 70.31741971016649]}}]}